HIMAWARI-8              
1 40267U 14060A   24050.78083045 -.00000285  00000+0  00000+0 0  9990
2 40267   0.0239 170.9763 0001428 161.2104 238.7435  1.00270001 34356
